HST                     
1 20580U 90037B   26068.15977042  .00009063  00000+0  30023-3 0  9999
2 20580  28.4717  43.6133 0001837 120.9992 239.0785 15.29473555773239
STARLINK-34359          
1 64280U 25120AA  26068.82049448  .00021923  00000+0  75014-3 0  9997
2 64280  53.1573 116.2561 0001457  65.7146 294.4007 15.30200014 43935
